ENVISAT                 
1 27386U 02009A   25325.49922105  .00000155  00000+0  64173-4 0  9991
2 27386  98.3566 276.7819 0001236  81.5339  31.2568 14.38987996243611
IDEFIX & ARIANE 42P R/B 
1 27422U 02021B   25325.39620891  .00000358  00000+0  15272-3 0  9992
2 27422  98.5755 260.3677 0012355 141.8757 218.3303 14.30927991228533
AQUA                    
1 27424U 02022A   25325.68298660  .00001197  00000+0  24990-3 0  9991
2 27424  98.4006 286.2244 0000591  74.2882  28.3410 14.61736546252956
CZ-4B R/B               
1 27432U 02024C   25325.57840627  .00000066  00000+0  57374-4 0  9993
2 27432  98.9030  14.4208 0049592 331.0721 149.7571 14.14521571213959
MIDORI II (ADEOS-II)    
1 27597U 02056A   25325.50262528  .00000328  00000+0  14716-3 0  9994
2 27597  98.7604 278.3512 0000927  22.5295 337.5927 14.29184981194846
H-2A R/B                
1 27601U 02056E   25325.47380735  .00000309  00000+0  12258-3 0  9995
2 27601  98.3033 285.0813 0071261 123.5221 348.2227 14.33653169198607
CZ-4B R/B               
1 28059U 03049C   25325.55080366  .00000430  00000+0  11047-3 0  9992
2 28059  98.6772 311.3161 0047790 200.4804 159.4476 14.54881589170878
CZ-2C R/B               
1 28222U 04012C   25325.11056258  .00032223  00000+0  50292-3 0  9990
2 28222  97.7456  15.9766 0018202 353.8150   6.2875 15.53579818187363
SL-16 R/B               
1 28353U 04021B   25325.47822134  .00000247  00000+0  15346-3 0  9990
2 28353  71.0000  99.5807 0006254 222.7426 137.3211 14.14579438107531
CZ-4B R/B               
1 28415U 04035C   25325.59346948  .00009130  00000+0  34269-3 0  9996
2 28415  97.3629 356.2247 0033484 354.9527   5.1369 15.26899781163408
CZ-2C R/B               
1 28480U 04046B   25325.29169934  .00000204  00000+0  90267-4 0  9999
2 28480  98.1970 242.0051 0140613 115.2106 246.3730 14.26926943 93040
ARIANE 5 R/B            
1 28499U 04049H   25325.42735534  .00000952  00000+0  11218-3 0  9990
2 28499  98.2519 124.9468 0084269 342.7711  17.0646 14.84945995129729
