CCSDS_OMM_VERS = 2.0
CREATION_DATE  = 
ORIGINATOR     = 

OBJECT_NAME    = ENVISAT
OBJECT_ID      = 2002-009A
CENTER_NAME    = EARTH
REF_FRAME      = TEME
TIME_SYSTEM    = UTC
MEAN_ELEMENT_THEORY = SGP/SGP4

EPOCH          = 2025-11-21T11:58:52.698720
MEAN_MOTION    = 14.38987996
ECCENTRICITY   = .0001236
INCLINATION    = 98.3566
RA_OF_ASC_NODE = 276.7819
ARG_OF_PERICENTER = 81.5339
MEAN_ANOMALY   = 31.2568

EPHEMERIS_TYPE = 0
CLASSIFICATION_TYPE = U
NORAD_CAT_ID   = 27386
ELEMENT_SET_NO = 999
REV_AT_EPOCH   = 24361
BSTAR          = .64173E-4
MEAN_MOTION_DOT = .155E-5
MEAN_MOTION_DDOT = 0

CCSDS_OMM_VERS = 2.0
CREATION_DATE  = 
ORIGINATOR     = 

OBJECT_NAME    = IDEFIX & ARIANE 42P R/B
OBJECT_ID      = 2002-021B
CENTER_NAME    = EARTH
REF_FRAME      = TEME
TIME_SYSTEM    = UTC
MEAN_ELEMENT_THEORY = SGP/SGP4

EPOCH          = 2025-11-21T09:30:32.449824
MEAN_MOTION    = 14.30927991
ECCENTRICITY   = .0012355
INCLINATION    = 98.5755
RA_OF_ASC_NODE = 260.3677
ARG_OF_PERICENTER = 141.8757
MEAN_ANOMALY   = 218.3303

EPHEMERIS_TYPE = 0
CLASSIFICATION_TYPE = U
NORAD_CAT_ID   = 27422
ELEMENT_SET_NO = 999
REV_AT_EPOCH   = 22853
BSTAR          = .15272E-3
MEAN_MOTION_DOT = .358E-5
MEAN_MOTION_DDOT = 0

CCSDS_OMM_VERS = 2.0
CREATION_DATE  = 
ORIGINATOR     = 

OBJECT_NAME    = AQUA
OBJECT_ID      = 2002-022A
CENTER_NAME    = EARTH
REF_FRAME      = TEME
TIME_SYSTEM    = UTC
MEAN_ELEMENT_THEORY = SGP/SGP4

EPOCH          = 2025-11-21T16:23:30.042240
MEAN_MOTION    = 14.61736546
ECCENTRICITY   = .0000591
INCLINATION    = 98.4006
RA_OF_ASC_NODE = 286.2244
ARG_OF_PERICENTER = 74.2882
MEAN_ANOMALY   = 28.3410

EPHEMERIS_TYPE = 0
CLASSIFICATION_TYPE = U
NORAD_CAT_ID   = 27424
ELEMENT_SET_NO = 999
REV_AT_EPOCH   = 25295
BSTAR          = .2499E-3
MEAN_MOTION_DOT = .1197E-4
MEAN_MOTION_DDOT = 0

CCSDS_OMM_VERS = 2.0
CREATION_DATE  = 
ORIGINATOR     = 

OBJECT_NAME    = CZ-4B R/B
OBJECT_ID      = 2002-024C
CENTER_NAME    = EARTH
REF_FRAME      = TEME
TIME_SYSTEM    = UTC
MEAN_ELEMENT_THEORY = SGP/SGP4

EPOCH          = 2025-11-21T13:52:54.301728
MEAN_MOTION    = 14.14521571
ECCENTRICITY   = .0049592
INCLINATION    = 98.9030
RA_OF_ASC_NODE = 14.4208
ARG_OF_PERICENTER = 331.0721
MEAN_ANOMALY   = 149.7571

EPHEMERIS_TYPE = 0
CLASSIFICATION_TYPE = U
NORAD_CAT_ID   = 27432
ELEMENT_SET_NO = 999
REV_AT_EPOCH   = 21395
BSTAR          = .57374E-4
MEAN_MOTION_DOT = .66E-6
MEAN_MOTION_DDOT = 0

CCSDS_OMM_VERS = 2.0
CREATION_DATE  = 
ORIGINATOR     = 

OBJECT_NAME    = MIDORI II (ADEOS-II)
OBJECT_ID      = 2002-056A
CENTER_NAME    = EARTH
REF_FRAME      = TEME
TIME_SYSTEM    = UTC
MEAN_ELEMENT_THEORY = SGP/SGP4

EPOCH          = 2025-11-21T12:03:46.824192
MEAN_MOTION    = 14.29184981
ECCENTRICITY   = .0000927
INCLINATION    = 98.7604
RA_OF_ASC_NODE = 278.3512
ARG_OF_PERICENTER = 22.5295
MEAN_ANOMALY   = 337.5927

EPHEMERIS_TYPE = 0
CLASSIFICATION_TYPE = U
NORAD_CAT_ID   = 27597
ELEMENT_SET_NO = 999
REV_AT_EPOCH   = 19484
BSTAR          = .14716E-3
MEAN_MOTION_DOT = .328E-5
MEAN_MOTION_DDOT = 0

CCSDS_OMM_VERS = 2.0
CREATION_DATE  = 
ORIGINATOR     = 

OBJECT_NAME    = H-2A R/B
OBJECT_ID      = 2002-056E
CENTER_NAME    = EARTH
REF_FRAME      = TEME
TIME_SYSTEM    = UTC
MEAN_ELEMENT_THEORY = SGP/SGP4

EPOCH          = 2025-11-21T11:22:16.955040
MEAN_MOTION    = 14.33653169
ECCENTRICITY   = .0071261
INCLINATION    = 98.3033
RA_OF_ASC_NODE = 285.0813
ARG_OF_PERICENTER = 123.5221
MEAN_ANOMALY   = 348.2227

EPHEMERIS_TYPE = 0
CLASSIFICATION_TYPE = U
NORAD_CAT_ID   = 27601
ELEMENT_SET_NO = 999
REV_AT_EPOCH   = 19860
BSTAR          = .12258E-3
MEAN_MOTION_DOT = .309E-5
MEAN_MOTION_DDOT = 0

CCSDS_OMM_VERS = 2.0
CREATION_DATE  = 
ORIGINATOR     = 

OBJECT_NAME    = CZ-4B R/B
OBJECT_ID      = 2003-049C
CENTER_NAME    = EARTH
REF_FRAME      = TEME
TIME_SYSTEM    = UTC
MEAN_ELEMENT_THEORY = SGP/SGP4

EPOCH          = 2025-11-21T13:13:09.436224
MEAN_MOTION    = 14.54881589
ECCENTRICITY   = .004779
INCLINATION    = 98.6772
RA_OF_ASC_NODE = 311.3161
ARG_OF_PERICENTER = 200.4804
MEAN_ANOMALY   = 159.4476

EPHEMERIS_TYPE = 0
CLASSIFICATION_TYPE = U
NORAD_CAT_ID   = 28059
ELEMENT_SET_NO = 999
REV_AT_EPOCH   = 17087
BSTAR          = .11047E-3
MEAN_MOTION_DOT = .43E-5
MEAN_MOTION_DDOT = 0

CCSDS_OMM_VERS = 2.0
CREATION_DATE  = 
ORIGINATOR     = 

OBJECT_NAME    = CZ-2C R/B
OBJECT_ID      = 2004-012C
CENTER_NAME    = EARTH
REF_FRAME      = TEME
TIME_SYSTEM    = UTC
MEAN_ELEMENT_THEORY = SGP/SGP4

EPOCH          = 2025-11-21T02:39:12.606912
MEAN_MOTION    = 15.53579818
ECCENTRICITY   = .0018202
INCLINATION    = 97.7456
RA_OF_ASC_NODE = 15.9766
ARG_OF_PERICENTER = 353.8150
MEAN_ANOMALY   = 6.2875

EPHEMERIS_TYPE = 0
CLASSIFICATION_TYPE = U
NORAD_CAT_ID   = 28222
ELEMENT_SET_NO = 999
REV_AT_EPOCH   = 18736
BSTAR          = .50292E-3
MEAN_MOTION_DOT = .32223E-3
MEAN_MOTION_DDOT = 0

CCSDS_OMM_VERS = 2.0
CREATION_DATE  = 
ORIGINATOR     = 

OBJECT_NAME    = SL-16 R/B
OBJECT_ID      = 2004-021B
CENTER_NAME    = EARTH
REF_FRAME      = TEME
TIME_SYSTEM    = UTC
MEAN_ELEMENT_THEORY = SGP/SGP4

EPOCH          = 2025-11-21T11:28:38.323776
MEAN_MOTION    = 14.14579438
ECCENTRICITY   = .0006254
INCLINATION    = 71.0000
RA_OF_ASC_NODE = 99.5807
ARG_OF_PERICENTER = 222.7426
MEAN_ANOMALY   = 137.3211

EPHEMERIS_TYPE = 0
CLASSIFICATION_TYPE = U
NORAD_CAT_ID   = 28353
ELEMENT_SET_NO = 999
REV_AT_EPOCH   = 10753
BSTAR          = .15346E-3
MEAN_MOTION_DOT = .247E-5
MEAN_MOTION_DDOT = 0

CCSDS_OMM_VERS = 2.0
CREATION_DATE  = 
ORIGINATOR     = 

OBJECT_NAME    = CZ-4B R/B
OBJECT_ID      = 2004-035C
CENTER_NAME    = EARTH
REF_FRAME      = TEME
TIME_SYSTEM    = UTC
MEAN_ELEMENT_THEORY = SGP/SGP4

EPOCH          = 2025-11-21T14:14:35.763072
MEAN_MOTION    = 15.26899781
ECCENTRICITY   = .0033484
INCLINATION    = 97.3629
RA_OF_ASC_NODE = 356.2247
ARG_OF_PERICENTER = 354.9527
MEAN_ANOMALY   = 5.1369

EPHEMERIS_TYPE = 0
CLASSIFICATION_TYPE = U
NORAD_CAT_ID   = 28415
ELEMENT_SET_NO = 999
REV_AT_EPOCH   = 16340
BSTAR          = .34269E-3
MEAN_MOTION_DOT = .913E-4
MEAN_MOTION_DDOT = 0

CCSDS_OMM_VERS = 2.0
CREATION_DATE  = 
ORIGINATOR     = 

OBJECT_NAME    = CZ-2C R/B
OBJECT_ID      = 2004-046B
CENTER_NAME    = EARTH
REF_FRAME      = TEME
TIME_SYSTEM    = UTC
MEAN_ELEMENT_THEORY = SGP/SGP4

EPOCH          = 2025-11-21T07:00:02.822976
MEAN_MOTION    = 14.26926943
ECCENTRICITY   = .0140613
INCLINATION    = 98.1970
RA_OF_ASC_NODE = 242.0051
ARG_OF_PERICENTER = 115.2106
MEAN_ANOMALY   = 246.3730

EPHEMERIS_TYPE = 0
CLASSIFICATION_TYPE = U
NORAD_CAT_ID   = 28480
ELEMENT_SET_NO = 999
REV_AT_EPOCH   = 9304
BSTAR          = .90267E-4
MEAN_MOTION_DOT = .204E-5
MEAN_MOTION_DDOT = 0

CCSDS_OMM_VERS = 2.0
CREATION_DATE  = 
ORIGINATOR     = 

OBJECT_NAME    = ARIANE 5 R/B
OBJECT_ID      = 2004-049H
CENTER_NAME    = EARTH
REF_FRAME      = TEME
TIME_SYSTEM    = UTC
MEAN_ELEMENT_THEORY = SGP/SGP4

EPOCH          = 2025-11-21T10:15:23.501376
MEAN_MOTION    = 14.84945995
ECCENTRICITY   = .0084269
INCLINATION    = 98.2519
RA_OF_ASC_NODE = 124.9468
ARG_OF_PERICENTER = 342.7711
MEAN_ANOMALY   = 17.0646

EPHEMERIS_TYPE = 0
CLASSIFICATION_TYPE = U
NORAD_CAT_ID   = 28499
ELEMENT_SET_NO = 999
REV_AT_EPOCH   = 12972
BSTAR          = .11218E-3
MEAN_MOTION_DOT = .952E-5
MEAN_MOTION_DDOT = 0

